{
  "type": "FeatureCollection",
  "features": [
    {
      "type": "Feature",
      "properties": {
        "norad_id": 30931,
        "name": "FENGYUN 1C DEB",
        "group": "fengyun-1c-debris",
        "lat": 41.23355585980088,
        "lon": -127.08528710480701,
        "alt_km": 893.9100457360837,
        "timestamp": "2025-12-13T05:42:57.838973+00:00",
        "meta_object_name": "FENGYUN 1C DEB",
        "meta_object_id": "1999-025AZV",
        "meta_epoch": "2025-12-10T10:20:08.217024",
        "meta_mean_motion": 14.01506386,
        "meta_eccentricity": 0.00932586,
        "meta_inclination": 99.1725,
        "meta_ra_of_asc_node": 41.9522,
        "meta_arg_of_pericenter": 47.8402,
        "meta_mean_anomaly": 331.7131,
        "meta_ephemeris_type": 0,
        "meta_classification_type": "U",
        "meta_norad_cat_id": 30931,
        "meta_element_set_no": 999,
        "meta_rev_at_epoch": 95893,
        "meta_bstar": 0.00075874848,
        "meta_mean_motion_dot": 1.146e-05,
        "meta_mean_motion_ddot": 0,
        "tle_line1": "1 30931U 99025AZV 25344.43065066  .00001146  00000+0  75875-3 0  9995",
        "tle_line2": "2 30931  99.1725  41.9522 0093258  47.8402 331.7131 14.01506386958933"
      },
      "geometry": {
        "type": "Point",
        "coordinates": [
          -127.08528710480701,
          41.23355585980088
        ]
      }
    },
    {
      "type": "Feature",
      "properties": {
        "norad_id": 30932,
        "name": "FENGYUN 1C DEB",
        "group": "fengyun-1c-debris",
        "lat": 66.69137482931103,
        "lon": 121.49385405464722,
        "alt_km": 837.7079105871308,
        "timestamp": "2025-12-13T05:42:57.838984+00:00",
        "meta_object_name": "FENGYUN 1C DEB",
        "meta_object_id": "1999-025AZW",
        "meta_epoch": "2025-12-11T06:04:03.291168",
        "meta_mean_motion": 14.2678024,
        "meta_eccentricity": 0.00584099,
        "meta_inclination": 98.9068,
        "meta_ra_of_asc_node": 278.1292,
        "meta_arg_of_pericenter": 298.3506,
        "meta_mean_anomaly": 61.1791,
        "meta_ephemeris_type": 0,
        "meta_classification_type": "U",
        "meta_norad_cat_id": 30932,
        "meta_element_set_no": 999,
        "meta_rev_at_epoch": 96373,
        "meta_bstar": 0.005899767,
        "meta_mean_motion_dot": 0.00014536,
        "meta_mean_motion_ddot": 0,
        "tle_line1": "1 30932U 99025AZW 25345.25281587  .00014536  00000+0  58998-2 0  9998",
        "tle_line2": "2 30932  98.9068 278.1292 0058409 298.3506  61.1791 14.26780240963736"
      },
      "geometry": {
        "type": "Point",
        "coordinates": [
          121.49385405464722,
          66.69137482931103
        ]
      }
    },
    {
      "type": "Feature",
      "properties": {
        "norad_id": 30933,
        "name": "FENGYUN 1C DEB",
        "group": "fengyun-1c-debris",
        "lat": 27.286192889684,
        "lon": -34.95906938368042,
        "alt_km": 746.6297658962931,
        "timestamp": "2025-12-13T05:42:57.838995+00:00",
        "meta_object_name": "FENGYUN 1C DEB",
        "meta_object_id": "1999-025AZX",
        "meta_epoch": "2025-12-11T22:04:42.460032",
        "meta_mean_motion": 14.36451803,
        "meta_eccentricity": 0.0077011,
        "meta_inclination": 99.0478,
        "meta_ra_of_asc_node": 328.3716,
        "meta_arg_of_pericenter": 325.0954,
        "meta_mean_anomaly": 88.6988,
        "meta_ephemeris_type": 0,
        "meta_classification_type": "U",
        "meta_norad_cat_id": 30933,
        "meta_element_set_no": 999,
        "meta_rev_at_epoch": 95860,
        "meta_bstar": 0.007149,
        "meta_mean_motion_dot": 0.00021703,
        "meta_mean_motion_ddot": 0,
        "tle_line1": "1 30933U 99025AZX 25345.91993588  .00021703  00000+0  71490-2 0  9999",
        "tle_line2": "2 30933  99.0478 328.3716 0077011 325.0954  88.6988 14.36451803958601"
      },
      "geometry": {
        "type": "Point",
        "coordinates": [
          -34.95906938368042,
          27.286192889684
        ]
      }
    },
    {
      "type": "Feature",
      "properties": {
        "norad_id": 30934,
        "name": "FENGYUN 1C DEB",
        "group": "fengyun-1c-debris",
        "lat": 10.014470506235625,
        "lon": 45.73559972452596,
        "alt_km": 1074.871679678101,
        "timestamp": "2025-12-13T05:42:57.839005+00:00",
        "meta_object_name": "FENGYUN 1C DEB",
        "meta_object_id": "1999-025AZY",
        "meta_epoch": "2025-12-11T22:36:10.971360",
        "meta_mean_motion": 13.46738981,
        "meta_eccentricity": 0.0340479,
        "meta_inclination": 98.7656,
        "meta_ra_of_asc_node": 223.0371,
        "meta_arg_of_pericenter": 83.5445,
        "meta_mean_anomaly": 280.4335,
        "meta_ephemeris_type": 0,
        "meta_classification_type": "U",
        "meta_norad_cat_id": 30934,
        "meta_element_set_no": 999,
        "meta_rev_at_epoch": 91697,
        "meta_bstar": 0.0024974,
        "meta_mean_motion_dot": 2.114e-05,
        "meta_mean_motion_ddot": 0,
        "tle_line1": "1 30934U 99025AZY 25345.94179365  .00002114  00000+0  24974-2 0  9992",
        "tle_line2": "2 30934  98.7656 223.0371 0340479  83.5445 280.4335 13.46738981916973"
      },
      "geometry": {
        "type": "Point",
        "coordinates": [
          45.73559972452596,
          10.014470506235625
        ]
      }
    },
    {
      "type": "Feature",
      "properties": {
        "norad_id": 30936,
        "name": "FENGYUN 1C DEB",
        "group": "fengyun-1c-debris",
        "lat": -24.0802300220524,
        "lon": 21.896757936718586,
        "alt_km": 796.5421801350494,
        "timestamp": "2025-12-13T05:42:57.839016+00:00",
        "meta_object_name": "FENGYUN 1C DEB",
        "meta_object_id": "1999-025BAA",
        "meta_epoch": "2025-12-11T18:41:04.268832",
        "meta_mean_motion": 14.23369526,
        "meta_eccentricity": 0.00459561,
        "meta_inclination": 98.582,
        "meta_ra_of_asc_node": 16.6037,
        "meta_arg_of_pericenter": 293.6121,
        "meta_mean_anomaly": 126.5543,
        "meta_ephemeris_type": 0,
        "meta_classification_type": "U",
        "meta_norad_cat_id": 30936,
        "meta_element_set_no": 999,
        "meta_rev_at_epoch": 97119,
        "meta_bstar": 0.00072347866,
        "meta_mean_motion_dot": 1.616e-05,
        "meta_mean_motion_ddot": 0,
        "tle_line1": "1 30936U 99025BAA 25345.77852163  .00001616  00000+0  72348-3 0  9994",
        "tle_line2": "2 30936  98.5820  16.6037 0045956 293.6121 126.5543 14.23369526971195"
      },
      "geometry": {
        "type": "Point",
        "coordinates": [
          21.896757936718586,
          -24.0802300220524
        ]
      }
    },
    {
      "type": "Feature",
      "properties": {
        "norad_id": 30937,
        "name": "FENGYUN 1C DEB",
        "group": "fengyun-1c-debris",
        "lat": 61.38609631036755,
        "lon": -123.3447396587381,
        "alt_km": 879.6485441837658,
        "timestamp": "2025-12-13T05:42:57.839026+00:00",
        "meta_object_name": "FENGYUN 1C DEB",
        "meta_object_id": "1999-025BAB",
        "meta_epoch": "2025-12-12T03:26:28.109760",
        "meta_mean_motion": 13.95584056,
        "meta_eccentricity": 0.00758029,
        "meta_inclination": 99.0888,
        "meta_ra_of_asc_node": 38.5127,
        "meta_arg_of_pericenter": 54.9156,
        "meta_mean_anomaly": 324.1589,
        "meta_ephemeris_type": 0,
        "meta_classification_type": "U",
        "meta_norad_cat_id": 30937,
        "meta_element_set_no": 999,
        "meta_rev_at_epoch": 95708,
        "meta_bstar": 0.00017911742,
        "meta_mean_motion_dot": 2.06e-06,
        "meta_mean_motion_ddot": 0,
        "tle_line1": "1 30937U 99025BAB 25346.14338090  .00000206  00000+0  17912-3 0  9995",
        "tle_line2": "2 30937  99.0888  38.5127 0075802  54.9156 324.1589 13.95584056957081"
      },
      "geometry": {
        "type": "Point",
        "coordinates": [
          -123.3447396587381,
          61.38609631036755
        ]
      }
    },
    {
      "type": "Feature",
      "properties": {
        "norad_id": 30938,
        "name": "FENGYUN 1C DEB",
        "group": "fengyun-1c-debris",
        "lat": -60.35867671387158,
        "lon": 165.31033563580684,
        "alt_km": 839.1861628220704,
        "timestamp": "2025-12-13T05:42:57.839037+00:00",
        "meta_object_name": "FENGYUN 1C DEB",
        "meta_object_id": "1999-025BAC",
        "meta_epoch": "2025-12-12T00:04:53.048928",
        "meta_mean_motion": 14.19817702,
        "meta_eccentricity": 0.0045922,
        "meta_inclination": 98.5906,
        "meta_ra_of_asc_node": 359.5177,
        "meta_arg_of_pericenter": 345.9263,
        "meta_mean_anomaly": 68.2419,
        "meta_ephemeris_type": 0,
        "meta_classification_type": "U",
        "meta_norad_cat_id": 30938,
        "meta_element_set_no": 999,
        "meta_rev_at_epoch": 97109,
        "meta_bstar": 0.00054262,
        "meta_mean_motion_dot": 1.119e-05,
        "meta_mean_motion_ddot": 0,
        "tle_line1": "1 30938U 99025BAC 25346.00339177  .00001119  00000+0  54262-3 0  9991",
        "tle_line2": "2 30938  98.5906 359.5177 0045922 345.9263  68.2419 14.19817702971099"
      },
      "geometry": {
        "type": "Point",
        "coordinates": [
          165.31033563580684,
          -60.35867671387158
        ]
      }
    }
  ]
}